NORAD_CAT_ID,OBJECT_NAME,OBJECT_TYPE,EPOCH,MEAN_MOTION,ECCENTRICITY,INCLINATION,RA_OF_ASC_NODE,ARG_OF_PERICENTER,MEAN_ANOMALY,BSTAR,MEAN_MOTION_DOT,MEAN_MOTION_DDOT,TLE_LINE0,TLE_LINE1,TLE_LINE2,SEMIMAJOR_AXIS,PERIOD,APOGEE,PERIGEE,DECAYED
54779.0,STARLINK-5447,PAYLOAD,2023-05-31 23:34:21,15.08844647,8.16e-05,53.2174,255.4448,108.4592,251.6489,3.634e-05,2.91e-06,0.0,0 STARLINK-5447,1 54779U 22175X   23151.98219718  .00000291  00000-0  36340-4 0  9998,2 54779  53.2174 255.4448 0000816 108.4592 251.6489 15.08844647 25089,6917.866,95.437,540.296,539.167,0.0
54779.0,STARLINK-5447,PAYLOAD,2023-06-01 10:42:04,15.08837024,7.81e-05,53.216,253.3662,113.4063,246.7011,5.1183e-05,5.27e-06,0.0,0 STARLINK-5447,1 54779U 22175X   23152.44588370  .00000527  00000-0  51183-4 0  9997,2 54779  53.2160 253.3662 0000781 113.4063 246.7011 15.08837024 27314,6917.889,95.438,540.295,539.214,0.0
54779.0,STARLINK-5447,PAYLOAD,2023-06-02 10:32:52,15.08831282,9.92e-05,53.2158,248.9046,91.0091,269.1015,-3.2779e-05,-8.09e-06,0.0,0 STARLINK-5447,1 54779U 22175X   23153.43949220 -.00000809  00000-0 -32779-4 0  9997,2 54779  53.2158 248.9046 0000992  91.0091 269.1015 15.08831282 25303,6917.907,95.438,540.458,539.086,0.0
54779.0,STARLINK-5447,PAYLOAD,2023-06-02 13:43:38,15.08836004,7.48e-05,53.2164,248.3107,88.701,271.4068,-4.1472e-06,-3.54e-06,0.0,0 STARLINK-5447,1 54779U 22175X   23153.57196857 -.00000354  00000-0 -41472-5 0  9998,2 54779  53.2164 248.3107 0000748  88.7010 271.4068 15.08836004 27487,6917.893,95.438,540.275,539.24,0.0
54779.0,STARLINK-5447,PAYLOAD,2023-06-02 15:19:01,15.08836396,0.0001132,53.2161,248.0127,96.9977,263.1144,-1.5308e-05,-5.31e-06,0.0,0 STARLINK-5447,1 54779U 22175X   23153.63820920 -.00000531  00000-0 -15308-4 0  9995,2 54779  53.2161 248.0127 0001132  96.9977 263.1144 15.08836396 27492,6917.891,95.438,540.54,538.973,0.0
54779.0,STARLINK-5447,PAYLOAD,2023-06-03 10:23:36,15.08907565,0.0001369,53.2165,244.4436,63.0679,297.0452,-0.00094607,-0.00015341,0.0,0 STARLINK-5447,1 54779U 22175X   23154.43306340 -.00015341  00000-0 -94607-3 0  9992,2 54779  53.2165 244.4436 0001369  63.0679 297.0452 15.08907565 25454,6917.674,95.433,540.486,538.592,0.0
54779.0,STARLINK-5447,PAYLOAD,2023-06-03 13:34:24,15.08842056,9.02e-05,53.2167,243.8487,77.7586,282.3507,7.4264e-05,8.94e-06,0.0,0 STARLINK-5447,1 54779U 22175X   23154.56556609  .00000894  00000-0  74264-4 0  9994,2 54779  53.2167 243.8487 0000902  77.7586 282.3507 15.08842056 27639,6917.874,95.437,540.363,539.115,0.0
54779.0,STARLINK-5447,PAYLOAD,2023-06-03 15:09:47,15.08843491,9.36e-05,53.2168,243.5512,77.4262,282.6835,8.303e-05,1.034e-05,0.0,0 STARLINK-5447,1 54779U 22175X   23154.63180491  .00001034  00000-0  83030-4 0  9992,2 54779  53.2168 243.5512 0000936  77.4262 282.6835 15.08843491 25483,6917.87,95.437,540.382,539.087,0.0
54779.0,STARLINK-5447,PAYLOAD,2023-06-04 10:14:26,15.08835222,8.29e-05,53.2164,239.9835,79.6021,280.5065,0.00014724,2.056e-05,0.0,0 STARLINK-5447,1 54779U 22175X   23155.42669024  .00002056  00000-0  14724-3 0  9992,2 54779  53.2164 239.9835 0000829  79.6021 280.5065 15.08835222 25603,6917.895,95.438,540.333,539.186,0.0
54779.0,STARLINK-5447,PAYLOAD,2023-06-04 13:25:11,15.08842607,8.37e-05,53.2164,239.3887,79.7928,280.3158,0.00012372,1.682e-05,0.0,0 STARLINK-5447,1 54779U 22175X   23155.55916626  .00001682  00000-0  12372-3 0  9990,2 54779  53.2164 239.3887 0000837  79.7928 280.3158 15.08842607 27787,6917.872,95.437,540.316,539.158,0.0
54779.0,STARLINK-5447,PAYLOAD,2023-06-05 11:40:36,15.08840471,7.62e-05,53.2164,235.2246,99.352,260.7558,5.033e-05,5.13e-06,0.0,0 STARLINK-5447,1 54779U 22175X   23156.48652953  .00000513  00000-0  50330-4 0  9992,2 54779  53.2164 235.2246 0000762  99.3520 260.7558 15.08840471 27923,6917.879,95.438,540.271,539.217,0.0
54779.0,STARLINK-5447,PAYLOAD,2023-06-05 14:51:22,15.08843603,7.97e-05,53.2166,234.6292,99.8905,260.2177,4.9084e-05,4.94e-06,0.0,0 STARLINK-5447,1 54779U 22175X   23156.61900724  .00000494  00000-0  49084-4 0  9991,2 54779  53.2166 234.6292 0000797  99.8905 260.2177 15.08843603 27943,6917.869,95.437,540.286,539.183,0.0
54779.0,STARLINK-5447,PAYLOAD,2023-06-06 11:31:22,15.08846439,8.27e-05,53.2161,230.7643,94.8798,265.2289,6.2814e-05,7.12e-06,0.0,0 STARLINK-5447,1 54779U 22175X   23157.48012425  .00000712  00000-0  62814-4 0  9998,2 54779  53.2161 230.7643 0000827  94.8798 265.2289 15.08846439 28078,6917.861,95.437,540.298,539.154,0.0
54779.0,STARLINK-5447,PAYLOAD,2023-06-07 08:11:24,15.08835675,8.17e-05,53.2162,226.8991,88.6145,271.4941,3.5286e-05,2.74e-06,0.0,0 STARLINK-5447,1 54779U 22175X   23158.34125182  .00000274  00000-0  35286-4 0  9995,2 54779  53.2162 226.8991 0000817  88.6145 271.4941 15.08835675 26046,6917.894,95.438,540.324,539.193,0.0
54779.0,STARLINK-5447,PAYLOAD,2023-06-08 09:37:34,15.08838995,8.03e-05,53.2161,222.1422,80.7442,279.3641,3.3236e-05,2.41e-06,0.0,0 STARLINK-5447,1 54779U 22175X   23159.40109124  .00000241  00000-0  33236-4 0  9998,2 54779  53.2161 222.1422 0000803  80.7442 279.3641 15.08838995 26201,6917.883,95.438,540.304,539.193,0.0
54779.0,STARLINK-5447,PAYLOAD,2023-06-08 11:12:57,15.08841367,7.96e-05,53.2163,221.8444,79.2033,280.9049,2.1665e-05,5.7e-07,0.0,0 STARLINK-5447,1 54779U 22175X   23159.46732998  .00000057  00000-0  21665-4 0  9993,2 54779  53.2163 221.8444 0000796  79.2033 280.9049 15.08841367 28370,6917.876,95.437,540.292,539.191,0.0
54779.0,STARLINK-5447,PAYLOAD,2023-06-09 11:03:44,15.088343,8.32e-05,53.2163,217.385,91.6387,268.47,5.518e-05,5.9e-06,0.0,0 STARLINK-5447,1 54779U 22175X   23160.46093472  .00000590  00000-0  55180-4 0  9993,2 54779  53.2163 217.3850 0000832  91.6387 268.4700 15.08834300 26363,6917.898,95.438,540.338,539.187,0.0
54779.0,STARLINK-5447,PAYLOAD,2023-06-09 20:36:03,15.08840684,8.71e-05,53.2164,215.6002,98.0626,262.0465,-5.1416e-05,-1.106e-05,0.0,0 STARLINK-5447,1 54779U 22175X   23160.85837689 -.00001106  00000-0 -51416-4 0  9996,2 54779  53.2164 215.6002 0000871  98.0626 262.0465 15.08840684 28580,6917.878,95.438,540.346,539.141,0.0
54779.0,STARLINK-5447,PAYLOAD,2023-06-10 12:29:54,15.08839951,8.66e-05,53.216,212.6264,94.1742,265.9349,5.0757e-05,5.2e-06,0.0,0 STARLINK-5447,1 54779U 22175X   23161.52077371  .00000520  00000-0  50757-4 0  9999,2 54779  53.2160 212.6264 0000866  94.1742 265.9349 15.08839951 28682,6917.881,95.438,540.345,539.146,0.0
54779.0,STARLINK-5447,PAYLOAD,2023-06-10 20:26:50,15.08838768,8.82e-05,53.216,211.1395,83.0953,277.0139,2.8074e-05,1.59e-06,0.0,0 STARLINK-5447,1 54779U 22175X   23161.85197559  .00000159  00000-0  28074-4 0  9991,2 54779  53.2160 211.1395 0000882  83.0953 277.0139 15.08838768 28732,6917.884,95.438,540.359,539.139,0.0
54779.0,STARLINK-5447,PAYLOAD,2023-06-10 23:37:37,15.08835072,8.86e-05,53.2157,210.5446,82.2218,277.8874,5.6258e-05,6.08e-06,0.0,0 STARLINK-5447,1 54779U 22175X   23161.98445717  .00000608  00000-0  56258-4 0  9991,2 54779  53.2157 210.5446 0000886  82.2218 277.8874 15.08835072 28758,6917.895,95.438,540.373,539.148,0.0
54779.0,STARLINK-5447,PAYLOAD,2023-06-11 07:34:32,15.08835395,8.87e-05,53.2157,209.0577,81.9749,278.1344,5.4142e-05,5.74e-06,0.0,0 STARLINK-5447,1 54779U 22175X   23162.31565826  .00000574  00000-0  54142-4 0  9995,2 54779  53.2157 209.0577 0000887  81.9749 278.1344 15.08835395 26642,6917.894,95.438,540.373,539.146,0.0
54779.0,STARLINK-5447,PAYLOAD,2023-06-11 10:45:19,15.08837074,8.75e-05,53.2157,208.4629,81.1074,279.0017,5.3635e-05,5.66e-06,0.0,0 STARLINK-5447,1 54779U 22175X   23162.44813750  .00000566  00000-0  53635-4 0  9998,2 54779  53.2157 208.4629 0000875  81.1074 279.0017 15.08837074 28828,6917.889,95.438,540.36,539.149,0.0
54779.0,STARLINK-5447,PAYLOAD,2023-06-12 02:39:10,15.08841894,8.72e-05,53.2159,205.489,79.5985,280.5105,0.00010068,1.315e-05,0.0,0 STARLINK-5447,1 54779U 22175X   23163.11053302  .00001315  00000-0  10068-3 0  9997,2 54779  53.2159 205.4890 0000872  79.5985 280.5105 15.08841894 26767,6917.875,95.437,540.343,539.136,0.0
54779.0,STARLINK-5447,PAYLOAD,2023-06-12 09:00:42,15.08843969,8.74e-05,53.2158,204.3,79.4504,280.6586,0.00010465,1.378e-05,0.0,0 STARLINK-5447,1 54779U 22175X   23163.37549120  .00001378  00000-0  10465-3 0  9993,2 54779  53.2158 204.3000 0000874  79.4504 280.6586 15.08843969 28968,6917.868,95.437,540.338,539.129,0.0
54779.0,STARLINK-5447,PAYLOAD,2023-06-12 20:08:24,15.0884271,8.64e-05,53.2157,202.2187,77.2051,282.9038,5.1019e-05,5.24e-06,0.0,0 STARLINK-5447,1 54779U 22175X   23163.83917277  .00000524  00000-0  51019-4 0  9999,2 54779  53.2157 202.2187 0000864  77.2051 282.9038 15.08842710 29031,6917.872,95.437,540.335,539.139,0.0
54779.0,STARLINK-5447,PAYLOAD,2023-06-13 12:02:16,15.08836975,8.82e-05,53.2161,199.2453,78.4078,281.7013,-3.9595e-06,-3.51e-06,0.0,0 STARLINK-5447,1 54779U 22175X   23164.50157844 -.00000351  00000-0 -39595-5 0  9996,2 54779  53.2161 199.2453 0000882  78.4078 281.7013 15.08836975 26975,6917.89,95.438,540.365,539.144,0.0
54779.0,STARLINK-5447,PAYLOAD,2023-06-13 19:59:11,15.08838962,8.95e-05,53.2158,197.7585,77.8375,282.2717,4.5099e-06,-2.16e-06,0.0,0 STARLINK-5447,1 54779U 22175X   23164.83277706 -.00000216  00000-0  45099-5 0  9997,2 54779  53.2158 197.7585 0000895  77.8375 282.2717 15.08838962 29188,6917.884,95.438,540.368,539.129,0.0
54779.0,STARLINK-5447,PAYLOAD,2023-06-14 02:20:44,15.08841268,9.36e-05,53.2159,196.5676,87.984,272.1259,4.4016e-06,-2.18e-06,0.0,0 STARLINK-5447,1 54779U 22175X   23165.09773539 -.00000218  00000-0  44016-5 0  9991,2 54779  53.2159 196.5676 0000936  87.9840 272.1259 15.08841268 29229,6917.877,95.437,540.389,539.094,0.0
54779.0,STARLINK-5447,PAYLOAD,2023-06-15 00:36:08,15.08836064,7.67e-05,53.2153,192.4039,90.5505,269.5575,6.6241e-05,7.67e-06,0.0,0 STARLINK-5447,1 54779U 22175X   23166.02509596  .00000767  00000-0  66241-4 0  9996,2 54779  53.2153 192.4039 0000767  90.5505 269.5575 15.08836064 27206,6917.892,95.438,540.288,539.227,0.0
